[{"OBJECT_NAME":"ONEWEB-0058","OBJECT_ID":"2020-008AG","EPOCH":"2026-02-02T01:23:22.490016","MEAN_MOTION":13.10377183,"ECCENTRICITY":0.00016574,"INCLINATION":87.8756,"RA_OF_ASC_NODE":63.2104,"ARG_OF_PERICENTER":100.8102,"MEAN_ANOMALY":259.3212,"EPHEMERIS_TYPE":0,"CLASSIFICATION_TYPE":"U","NORAD_CAT_ID":45161,"ELEMENT_SET_NO":999,"REV_AT_EPOCH":29072,"BSTAR":0.0014849218,"MEAN_MOTION_DOT":5.31e-6,"MEAN_MOTION_DDOT":0},{"OBJECT_NAME":"ONEWEB-0059","OBJECT_ID":"2020-008AH","EPOCH":"2026-02-02T01:18:23.410368","MEAN_MOTION":13.10376923,"ECCENTRICITY":0.00017334,"INCLINATION":87.8755,"RA_OF_ASC_NODE":63.2117,"ARG_OF_PERICENTER":94.0683,"MEAN_ANOMALY":266.0643,"EPHEMERIS_TYPE":0,"CLASSIFICATION_TYPE":"U","NORAD_CAT_ID":45162,"ELEMENT_SET_NO":999,"REV_AT_EPOCH":29062,"BSTAR":0.0010446633,"MEAN_MOTION_DOT":3.77e-6,"MEAN_MOTION_DDOT":0},{"OBJECT_NAME":"ONEWEB-0062","OBJECT_ID":"2020-008AJ","EPOCH":"2026-02-02T01:55:27.253056","MEAN_MOTION":13.10370599,"ECCENTRICITY":0.00016192,"INCLINATION":87.8756,"RA_OF_ASC_NODE":63.1858,"ARG_OF_PERICENTER":107.2607,"MEAN_ANOMALY":252.8698,"EPHEMERIS_TYPE":0,"CLASSIFICATION_TYPE":"U","NORAD_CAT_ID":45163,"ELEMENT_SET_NO":999,"REV_AT_EPOCH":29049,"BSTAR":0.001189965,"MEAN_MOTION_DOT":4.28e-6,"MEAN_MOTION_DDOT":0},{"OBJECT_NAME":"ONEWEB-0065","OBJECT_ID":"2020-008AK","EPOCH":"2026-02-02T02:39:27.139392","MEAN_MOTION":13.10374558,"ECCENTRICITY":0.00021976,"INCLINATION":87.8752,"RA_OF_ASC_NODE":63.1917,"ARG_OF_PERICENTER":89.8059,"MEAN_ANOMALY":270.332,"EPHEMERIS_TYPE":0,"CLASSIFICATION_TYPE":"U","NORAD_CAT_ID":45164,"ELEMENT_SET_NO":999,"REV_AT_EPOCH":29019,"BSTAR":-0.0016435537,"MEAN_MOTION_DOT":-5.61e-6,"MEAN_MOTION_DDOT":0},{"OBJECT_NAME":"ONEWEB-0066","OBJECT_ID":"2020-020A","EPOCH":"2026-02-02T00:36:11.474784","MEAN_MOTION":13.11407981,"ECCENTRICITY":0.0001704,"INCLINATION":87.8822,"RA_OF_ASC_NODE":47.9609,"ARG_OF_PERICENTER":89.8149,"MEAN_ANOMALY":270.3174,"EPHEMERIS_TYPE":0,"CLASSIFICATION_TYPE":"U","NORAD_CAT_ID":45424,"ELEMENT_SET_NO":999,"REV_AT_EPOCH":28496,"BSTAR":-0.0013430549,"MEAN_MOTION_DOT":-4.63e-6,"MEAN_MOTION_DDOT":0},{"OBJECT_NAME":"ONEWEB-0067","OBJECT_ID":"2020-020B","EPOCH":"2026-02-02T01:30:04.643136","MEAN_MOTION":13.11416854,"ECCENTRICITY":0.0001925,"INCLINATION":87.883,"RA_OF_ASC_NODE":47.8606,"ARG_OF_PERICENTER":85.0127,"MEAN_ANOMALY":275.122,"EPHEMERIS_TYPE":0,"CLASSIFICATION_TYPE":"U","NORAD_CAT_ID":45425,"ELEMENT_SET_NO":999,"REV_AT_EPOCH":28502,"BSTAR":-0.0016035738,"MEAN_MOTION_DOT":-5.56e-6,"MEAN_MOTION_DDOT":0},{"OBJECT_NAME":"ONEWEB-0080","OBJECT_ID":"2020-020C","EPOCH":"2026-02-02T01:43:20.371584","MEAN_MOTION":13.11396054,"ECCENTRICITY":0.00011992,"INCLINATION":87.8816,"RA_OF_ASC_NODE":47.951,"ARG_OF_PERICENTER":77.499,"MEAN_ANOMALY":282.6272,"EPHEMERIS_TYPE":0,"CLASSIFICATION_TYPE":"U","NORAD_CAT_ID":45426,"ELEMENT_SET_NO":999,"REV_AT_EPOCH":28499,"BSTAR":-0.009349897,"MEAN_MOTION_DOT":-3.299e-5,"MEAN_MOTION_DDOT":0},{"OBJECT_NAME":"ONEWEB-0090","OBJECT_ID":"2020-020D","EPOCH":"2026-02-02T07:41:11.993280","MEAN_MOTION":13.11419138,"ECCENTRICITY":0.00018164,"INCLINATION":87.8817,"RA_OF_ASC_NODE":47.9028,"ARG_OF_PERICENTER":92.1717,"MEAN_ANOMALY":267.9619,"EPHEMERIS_TYPE":0,"CLASSIFICATION_TYPE":"U","NORAD_CAT_ID":45427,"ELEMENT_SET_NO":999,"REV_AT_EPOCH":28499,"BSTAR":0.001021277,"MEAN_MOTION_DOT":3.75e-6,"MEAN_MOTION_DDOT":0},{"OBJECT_NAME":"ONEWEB-0061","OBJECT_ID":"2020-020E","EPOCH":"2026-02-02T01:07:42.077856","MEAN_MOTION":13.11413457,"ECCENTRICITY":0.000181,"INCLINATION":87.8823,"RA_OF_ASC_NODE":47.9409,"ARG_OF_PERICENTER":89.8954,"MEAN_ANOMALY":270.2382,"EPHEMERIS_TYPE":0,"CLASSIFICATION_TYPE":"U","NORAD_CAT_ID":45428,"ELEMENT_SET_NO":999,"REV_AT_EPOCH":28491,"BSTAR":-0.00015640364,"MEAN_MOTION_DOT":-4.3e-7,"MEAN_MOTION_DDOT":0},{"OBJECT_NAME":"ONEWEB-0081","OBJECT_ID":"2020-020F","EPOCH":"2026-02-02T08:00:31.822560","MEAN_MOTION":13.11416533,"ECCENTRICITY":0.00017934,"INCLINATION":87.8822,"RA_OF_ASC_NODE":47.8996,"ARG_OF_PERICENTER":84.6282,"MEAN_ANOMALY":275.505,"EPHEMERIS_TYPE":0,"CLASSIFICATION_TYPE":"U","NORAD_CAT_ID":45429,"ELEMENT_SET_NO":999,"REV_AT_EPOCH":28506,"BSTAR":0.0013186354,"MEAN_MOTION_DOT":4.8e-6,"MEAN_MOTION_DDOT":0},{"OBJECT_NAME":"ONEWEB-0069","OBJECT_ID":"2020-020G","EPOCH":"2026-02-02T07:44:39.420672","MEAN_MOTION":13.11417868,"ECCENTRICITY":0.00018519,"INCLINATION":87.8822,"RA_OF_ASC_NODE":47.8974,"ARG_OF_PERICENTER":88.7889,"MEAN_ANOMALY":271.3451,"EPHEMERIS_TYPE":0,"CLASSIFICATION_TYPE":"U","NORAD_CAT_ID":45430,"ELEMENT_SET_NO":999,"REV_AT_EPOCH":28499,"BSTAR":0.0014003821,"MEAN_MOTION_DOT":5.09e-6,"MEAN_MOTION_DDOT":0},{"OBJECT_NAME":"ONEWEB-0031","OBJECT_ID":"2020-020H","EPOCH":"2026-02-02T07:04:20.958528","MEAN_MOTION":13.1141606,"ECCENTRICITY":0.00017622,"INCLINATION":87.8814,"RA_OF_ASC_NODE":47.9234,"ARG_OF_PERICENTER":97.0325,"MEAN_ANOMALY":263.1004,"EPHEMERIS_TYPE":0,"CLASSIFICATION_TYPE":"U","NORAD_CAT_ID":45431,"ELEMENT_SET_NO":999,"REV_AT_EPOCH":28497,"BSTAR":-0.0013283877,"MEAN_MOTION_DOT":-4.58e-6,"MEAN_MOTION_DDOT":0},{"OBJECT_NAME":"ONEWEB-0027","OBJECT_ID":"2020-020J","EPOCH":"2026-02-02T01:31:31.312704","MEAN_MOTION":13.176499,"ECCENTRICITY":0.00020112,"INCLINATION":87.9099,"RA_OF_ASC_NODE":32.6872,"ARG_OF_PERICENTER":99.928,"MEAN_ANOMALY":260.2078,"EPHEMERIS_TYPE":0,"CLASSIFICATION_TYPE":"U","NORAD_CAT_ID":45432,"ELEMENT_SET_NO":999,"REV_AT_EPOCH":28856,"BSTAR":5.2020266e-5,"MEAN_MOTION_DOT":3.3e-7,"MEAN_MOTION_DDOT":0},{"OBJECT_NAME":"ONEWEB-0064","OBJECT_ID":"2020-020K","EPOCH":"2026-02-02T07:01:54.437952","MEAN_MOTION":13.11415753,"ECCENTRICITY":0.00018442,"INCLINATION":87.8814,"RA_OF_ASC_NODE":47.9136,"ARG_OF_PERICENTER":96.7647,"MEAN_ANOMALY":263.3691,"EPHEMERIS_TYPE":0,"CLASSIFICATION_TYPE":"U","NORAD_CAT_ID":45433,"ELEMENT_SET_NO":999,"REV_AT_EPOCH":28500,"BSTAR":-0.0016758334,"MEAN_MOTION_DOT":-5.81e-6,"MEAN_MOTION_DDOT":0},{"OBJECT_NAME":"ONEWEB-0018","OBJECT_ID":"2020-020L","EPOCH":"2026-02-02T07:48:18.753120","MEAN_MOTION":13.11418892,"ECCENTRICITY":0.0001687,"INCLINATION":87.8824,"RA_OF_ASC_NODE":47.9013,"ARG_OF_PERICENTER":89.5555,"MEAN_ANOMALY":270.5767,"EPHEMERIS_TYPE":0,"CLASSIFICATION_TYPE":"U","NORAD_CAT_ID":45434,"ELEMENT_SET_NO":999,"REV_AT_EPOCH":28495,"BSTAR":0.0012937234,"MEAN_MOTION_DOT":4.71e-6,"MEAN_MOTION_DDOT":0},{"OBJECT_NAME":"ONEWEB-0083","OBJECT_ID":"2020-020M","EPOCH":"2026-02-02T02:05:18.007872","MEAN_MOTION":13.11419029,"ECCENTRICITY":0.00018027,"INCLINATION":87.8822,"RA_OF_ASC_NODE":47.9366,"ARG_OF_PERICENTER":92.6901,"MEAN_ANOMALY":267.4433,"EPHEMERIS_TYPE":0,"CLASSIFICATION_TYPE":"U","NORAD_CAT_ID":45435,"ELEMENT_SET_NO":999,"REV_AT_EPOCH":28496,"BSTAR":0.00068992809,"MEAN_MOTION_DOT":2.57e-6,"MEAN_MOTION_DDOT":0},{"OBJECT_NAME":"ONEWEB-0095","OBJECT_ID":"2020-020N","EPOCH":"2026-02-02T07:21:39.147840","MEAN_MOTION":13.11418143,"ECCENTRICITY":0.00025978,"INCLINATION":87.8819,"RA_OF_ASC_NODE":47.9026,"ARG_OF_PERICENTER":95.8442,"MEAN_ANOMALY":264.2982,"EPHEMERIS_TYPE":0,"CLASSIFICATION_TYPE":"U","NORAD_CAT_ID":45436,"ELEMENT_SET_NO":999,"REV_AT_EPOCH":28499,"BSTAR":-0.00076073522,"MEAN_MOTION_DOT":-2.57e-6,"MEAN_MOTION_DDOT":0}]
