ONEWEB-0058             
1 45161U 20008AG  26033.05789919  .00000531  00000+0  14849-2 0  9995
2 45161  87.8756  63.2104 0001657 100.8102 259.3212 13.10377183290725
ONEWEB-0059             
1 45162U 20008AH  26033.05443762  .00000377  00000+0  10447-2 0  9997
2 45162  87.8755  63.2117 0001733  94.0683 266.0643 13.10376923290625
ONEWEB-0062             
1 45163U 20008AJ  26033.08017654  .00000428  00000+0  11900-2 0  9990
2 45163  87.8756  63.1858 0001619 107.2607 252.8698 13.10370599290495
ONEWEB-0065             
1 45164U 20008AK  26033.11073078 -.00000561  00000+0 -16436-2 0  9996
2 45164  87.8752  63.1917 0002197  89.8059 270.3320 13.10374558290199
ONEWEB-0066             
1 45424U 20020A   26033.02513281 -.00000463  00000+0 -13431-2 0  9997
2 45424  87.8822  47.9609 0001704  89.8149 270.3174 13.11407981284960
ONEWEB-0067             
1 45425U 20020B   26033.06255374 -.00000556  00000+0 -16036-2 0  9995
2 45425  87.8830  47.8606 0001925  85.0127 275.1220 13.11416854285027
ONEWEB-0080             
1 45426U 20020C   26033.07176356 -.00003299  00000+0 -93499-2 0  9994
2 45426  87.8816  47.9510 0001199  77.4990 282.6272 13.11396054284997
ONEWEB-0090             
1 45427U 20020D   26033.32027770  .00000375  00000+0  10213-2 0  9991
2 45427  87.8817  47.9028 0001816  92.1717 267.9619 13.11419138284990
ONEWEB-0061             
1 45428U 20020E   26033.04701479 -.00000043  00000+0 -15640-3 0  9990
2 45428  87.8823  47.9409 0001810  89.8954 270.2382 13.11413457284915
ONEWEB-0081             
1 45429U 20020F   26033.33370165  .00000480  00000+0  13186-2 0  9992
2 45429  87.8822  47.8996 0001793  84.6282 275.5050 13.11416533285067
ONEWEB-0069             
1 45430U 20020G   26033.32267848  .00000509  00000+0  14004-2 0  9998
2 45430  87.8822  47.8974 0001851  88.7889 271.3451 13.11417868284990
ONEWEB-0031             
1 45431U 20020H   26033.29468702 -.00000458  00000+0 -13284-2 0  9991
2 45431  87.8814  47.9234 0001762  97.0325 263.1004 13.11416060284975
ONEWEB-0027             
1 45432U 20020J   26033.06355686  .00000033  00000+0  52020-4 0  9993
2 45432  87.9099  32.6872 0002011  99.9280 260.2078 13.17649900288565
ONEWEB-0064             
1 45433U 20020K   26033.29299118 -.00000581  00000+0 -16758-2 0  9992
2 45433  87.8814  47.9136 0001844  96.7647 263.3691 13.11415753285009
ONEWEB-0018             
1 45434U 20020L   26033.32521705  .00000471  00000+0  12937-2 0  9998
2 45434  87.8824  47.9013 0001687  89.5555 270.5767 13.11418892284952
ONEWEB-0083             
1 45435U 20020M   26033.08701398  .00000257  00000+0  68993-3 0  9996
2 45435  87.8822  47.9366 0001802  92.6901 267.4433 13.11419029284960
ONEWEB-0095             
1 45436U 20020N   26033.30670310 -.00000257  00000+0 -76074-3 0  9992
2 45436  87.8819  47.9026 0002597  95.8442 264.2982 13.11418143284990
